{
    "links": {
        "self": "http://www.neowsapp.com/rest/v1/neo/3928734?api_key=iIulBulltgU6a56xZRHN4H3l9WmuAYTsLGpBGhQ2"
    },
    "id": "3928734",
    "neo_reference_id": "3928734",
    "name": "(2019 XK3)",
    "designation": "2019 XK3",
    "nasa_jpl_url": "http://ssd.jpl.nasa.gov/sbdb.cgi?sstr=3928734",
    "absolute_magnitude_h": 20.8,
    "estimated_diameter": {
        "kilometers": {
            "estimated_diameter_min": 0.1838886721,
            "estimated_diameter_max": 0.411187571
        },
        "meters": {
            "estimated_diameter_min": 183.8886720703,
            "estimated_diameter_max": 411.1875710413
        },
        "miles": {
            "estimated_diameter_min": 0.1142630881,
            "estimated_diameter_max": 0.2555000322
        },
        "feet": {
            "estimated_diameter_min": 603.309310875,
            "estimated_diameter_max": 1349.040630575
        }
    },
    "is_potentially_hazardous_asteroid": true,
    "close_approach_data": [
        {
            "close_approach_date": "2019-09-14",
            "close_approach_date_full": "2019-Sep-14 21:47",
            "epoch_date_close_approach": 1568497620000,
            "relative_velocity": {
                "kilometers_per_second": "16.0432992873",
                "kilometers_per_hour": "57755.8774343005",
                "miles_per_hour": "35887.2561757741"
            },
            "miss_distance": {
                "astronomical": "0.3005393786",
                "lunar": "116.9098182754",
                "kilometers": "44960050.889683582",
                "miles": "27936880.1725021516"
            },
            "orbiting_body": "Earth"
        }
    ],
    "orbital_data": {
        "orbit_id": "4",
        "orbit_determination_date": "2020-01-01 05:52:50",
        "first_observation_date": "2019-12-06",
        "last_observation_date": "2019-12-23",
        "data_arc_in_days": 17,
        "observations_used": 26,
        "orbit_uncertainty": "8",
        "minimum_orbit_intersection": ".042234",
        "jupiter_tisserand_invariant": "3.132",
        "epoch_osculation": "2458834.5",
        "eccentricity": ".7147985527549096",
        "semi_major_axis": "2.373892213121065",
        "inclination": "5.587621892084432",
        "ascending_node_longitude": "88.15286759447145",
        "orbital_period": "1335.949127531426",
        "perihelion_distance": ".6770374947859785",
        "perihelion_argument": "232.3509776740578",
        "aphelion_distance": "4.070746931456152",
        "perihelion_time": "2458723.057690986355",
        "mean_anomaly": "30.03050821182446",
        "mean_motion": ".2694713388265091",
        "equinox": "J2000",
        "orbit_class": {
            "orbit_class_type": "APO",
            "orbit_class_description": "Near-Earth asteroid orbits which cross the Earth’s orbit similar to that of 1862 Apollo",
            "orbit_class_range": "a (semi-major axis) > 1.0 AU; q (perihelion) < 1.017 AU"
        }
    },
    "is_sentry_object": false
}